P/2012 C3 (PANSTARRS),e,9.0920,135.3677,344.9542,9.748681,0.0323806,0.63011148,359.9758,10/06.0/2011,2000,g 13.0,4.0
# From MPC 84931
P/2012 F2 (PANSTARRS),e,14.6965,226.9630,33.2877,6.339451,0.0617485,0.54045831,235.0160,09/05.0/2023,2000,g 12.0,4.0
# From MPEC 2022-ED3
P/2012 G1 (PANSTARRS),e,12.1694,283.2614,266.1049,4.164885,0.1159577,0.32903665,124.1264,09/05.0/2023,2000,g 15.0,4.0
# From MPC 80898
P/2012 K3 (Gibbs),e,13.1851,125.8201,172.2299,3.629489,0.1425397,0.42214009,211.0657,09/05.0/2023,2000,g 15.0,4.0
# From MPC 88326
P/2012 NJ (La Sagra),e,84.4943,315.6280,338.3889,8.466815,0.0400059,0.84662916,163.9611,09/05.0/2023,2000,g 14.5,4.0
# From MPC 81470
P/2012 O1 (McNaught),e,7.4262,91.9082,238.3538,3.542035,0.1478512,0.59402284,243.5154,09/05.0/2023,2000,g 17.5,4.0
# From MPC 80899
P/2012 O2 (McNaught),e,24.4592,120.6779,183.4745,3.627051,0.1426834,0.53166181,225.9698,09/05.0/2023,2000,g 17.0,4.0
# From MPEC 2022-F14
C/2012 S1 (ISON),h,12/01.7791/2013,62.3375,295.4569,346.1775,1.000019,0.014142,2000,8.5,3.2
# From MPC 82320
P/2012 T2 (PANSTARRS),e,12.5702,73.7195,310.9523,5.724898,0.0719536,0.16251372,271.4818,09/05.0/2023,2000,g 10.0,4.0
# From MPC 80900
P/2012 T3 (PANSTARRS),e,9.5541,114.3465,195.5506,6.152092,0.0645907,0.61630196,267.3592,09/05.0/2023,2000,g 15.0,4.0
# From MPC 82720
P/2012 U2 (PANSTARRS),e,10.7592,185.3218,228.2987,7.129321,0.0517764,0.50041899,204.0894,09/05.0/2023,2000,g 12.5,4.0
# From MPC 84024
P/2012 US27 (Siding Spring),e,39.3710,49.2116,0.8521,5.163323,0.0840060,0.64838480,325.3726,09/05.0/2023,2000,g 13.5,4.0
# From MPC 82721
P/2012 WA34 (Lemmon-PANSTARRS),e,6.0828,93.5529,356.6570,4.677577,0.0974255,0.34341271,5.6581,09/05.0/2023,2000,g 13.5,4.0
# From MPC 82721
P/2013 AL76 (Catalina),e,144.8889,146.0392,27.0395,6.501677,0.0594519,0.68560275,233.7755,09/05.0/2023,2000,g 16.0,4.0
# From MPC 91612
P/2013 G1 (Kowalski),e,5.4567,221.2910,51.5410,6.900525,0.0543727,0.51056359,193.5882,09/05.0/2023,2000,g 11.0,4.0
# From MPC 84025
P/2013 G4 (PANSTARRS),e,5.9163,339.6254,214.5907,4.436363,0.1054784,0.40904595,46.7148,09/05.0/2023,2000,g 15.0,4.0
# From MPC 91613
P/2013 J2 (McNaught),e,15.5018,289.3046,37.9141,6.223994,0.0634747,0.65695404,232.0958,09/05.0/2023,2000,g 13.0,4.0
# From MPC 86229
P/2013 N3 (PANSTARRS),e,2.1727,17.4941,323.9818,7.397848,0.0489831,0.59255711,170.7429,09/05.0/2023,2000,g 13.0,4.0
# From MPC 85834
P/2013 N5 (PANSTARRS),e,23.4582,187.1549,176.9637,6.797006,0.0556196,0.73239512,206.3162,09/05.0/2023,2000,g 17.0,4.0
# From MPC 85834
P/2013 P1 (PANSTARRS),e,18.7174,160.6225,138.2494,8.586218,0.0391743,0.60385348,150.5682,09/05.0/2023,2000,g 12.0,4.0
# From MPEC 2022-V95
P/2013 R3 (Catalina-PANSTARRS),e,0.8651,341.9605,11.3562,3.031199,0.1867594,0.27559288,323.1141,09/05.0/2023,2000,g 14.0,4.0
# From unp
P/2013 R3-A (Catalina-PANSTARRS),e,0.8642,341.9154,11.4351,3.030954,0.1867820,0.27552374,323.1792,09/05.0/2023,2000,g  9.0,4.0
# From MPEC 2015-M77
P/2013 R3-B (Catalina-PANSTARRS),e,0.8654,341.9714,11.3699,3.031173,0.1867617,0.27556894,323.1091,09/05.0/2023,2000,g  9.0,4.0
# From MPC 85835
P/2013 T1 (PANSTARRS),e,24.2998,10.0792,346.1923,5.855649,0.0695571,0.62419074,255.8084,09/05.0/2023,2000,g 16.5,4.0
# From MPC 86643
P/2013 T2 (Schwartz),e,9.4553,0.8035,345.5969,3.492335,0.1510185,0.50083107,207.4968,09/05.0/2023,2000,g 16.0,4.0
# From MPC 91613
P/2013 W1 (PANSTARRS),e,4.6979,117.8373,1.2155,3.486737,0.1513824,0.59316845,164.9530,09/05.0/2023,2000,g 17.5,4.0
# From MPC101095
P/2013 YG46 (Spacewatch),e,7.8580,48.8322,242.6573,3.276692,0.1661692,0.45503793,40.1427,09/05.0/2023,2000,g 10.0,4.0
# From MPC 89728
P/2014 A2 (Hill),e,24.5551,106.6383,356.1462,5.926385,0.0683155,0.64603209,247.0866,09/05.0/2023,2000,g 15.0,4.0
# From MPC 92981
P/2014 A3 (PANSTARRS),e,13.7175,229.9781,214.1922,4.606895,0.0996762,0.24638562,13.4858,09/05.0/2023,2000,g 12.0,4.0
# From MPC102095
P/2014 C1 (TOTAS),e,2.6932,167.8126,24.0535,3.029498,0.1869167,0.45182015,299.0887,09/05.0/2023,2000,g 15.5,4.0
# From MPEC 2022-WD2
C/2014 F3 (Sheppard-Trujillo),e,6.5252,326.1348,4.8468,14.47777,0.0178917,0.60517921,14.8319,09/05.0/2023,2000,g  6.0,4.0
# From MPC 98560
P/2014 L2 (NEOWISE),e,5.1965,149.3427,182.7333,6.306643,0.0622310,0.64748439,207.3592,09/05.0/2023,2000,g 12.0,4.0
# From MPC 90769
P/2014 L3 (Hill),e,6.2615,115.5039,178.7104,8.180683,0.0421230,0.77212845,141.3400,09/05.0/2023,2000,g 16.0,4.0
# From MPC 91614
P/2014 M4 (PANSTARRS),e,3.3462,263.1647,148.0905,5.866502,0.0693642,0.59596749,219.8289,09/05.0/2023,2000,g 15.0,4.0
# From MPEC 2022-K19
P/2014 MG4 (Spacewatch-PANSTARRS),e,9.3650,311.7138,298.9971,5.013810,0.0877915,0.25877606,327.6694,09/05.0/2023,2000,g  9.5,4.0
# From MPC 98560
P/2014 O3 (PANSTARRS),e,7.7925,87.6341,204.7989,7.580628,0.0472222,0.38367096,161.9700,09/05.0/2023,2000,g 10.5,4.0
# From MPEC 2023-J29
C/2014 OG392 (PANSTARRS),e,9.0329,145.8121,254.6239,12.25900,0.0229626,0.18651632,14.4287,09/05.0/2023,2000,g  6.0,4.0
# From MPC 91616
P/2014 U4 (PANSTARRS),e,6.4285,11.8895,347.8683,3.509883,0.1498874,0.46463697,139.8996,09/05.0/2023,2000,g 18.0,4.0
# From MPEC 2023-QF0
C/2014 UN271 (Bernardinelli-Bernstein),h,01/19.8609/2031,95.4317,189.9022,326.1757,1.002202,10.951833,2000,2.5,3.2
# From MPC 95211
P/2014 V1 (PANSTARRS),e,22.5189,166.1941,177.6787,5.479350,0.0768441,0.53421271,241.3991,09/05.0/2023,2000,g 14.0,4.0
# From MPEC 2023-QF0
P/2014 W1 (PANSTARRS),e,8.8368,246.1949,152.0815,4.473576,0.1041650,0.39006657,349.1225,09/05.0/2023,2000,g 15.5,4.0
# From MPC105542
P/2014 W4 (PANSTARRS),e,15.2838,33.3912,67.5741,6.585253,0.0583237,0.35399931,163.5085,09/05.0/2023,2000,g 11.0,4.0
# From MPC 94281
P/2014 X1 (Elenin),e,26.0584,61.5827,33.8578,6.202992,0.0637973,0.71007700,202.0776,09/05.0/2023,2000,g 15.0,4.0
# From MPC 92275
P/2015 A3 (PANSTARRS),e,172.5454,277.3870,249.5414,7.817177,0.0450951,0.85026138,140.7277,09/05.0/2023,2000,g 20.0,4.0
# From MPC 99270
P/2015 B1 (PANSTARRS),e,18.0628,352.8963,188.8164,9.485838,0.0337358,0.36626982,98.4987,09/05.0/2023,2000,g  8.5,4.0
# From MPC109141
P/2015 B4 (Lemmon-PANSTARRS),e,1.7652,266.0912,227.1739,8.512042,0.0396875,0.56113461,124.4459,09/05.0/2023,2000,g 11.0,4.0
# From MPC101096
P/2015 C1 (TOTAS-Gibbs),e,13.9333,348.7872,178.0443,6.569966,0.0585274,0.56197607,178.9450,09/05.0/2023,2000,g 12.5,4.0
# From MPC109141
P/2015 D5 (Kowalski),e,20.5447,74.0810,39.6117,8.949320,0.0368145,0.49060488,126.7124,09/05.0/2023,2000,g  9.0,4.0
# From MPC 96866
P/2015 D6 (Lemmon-PANSTARRS),e,20.2139,45.7943,124.9667,7.132171,0.0517454,0.36172266,154.9263,09/05.0/2023,2000,g 10.5,4.0
# From MPEC 2021-P47
P/2015 HG16 (PANSTARRS),e,18.9764,57.0899,46.9190,4.802894,0.0936374,0.35092795,321.8595,09/05.0/2023,2000,g 12.5,4.0
# From MPC 95213
P/2015 K5 (PANSTARRS),e,39.9395,134.2456,106.2632,6.727376,0.0564853,0.55154202,170.6385,09/05.0/2023,2000,g 13.5,4.0
# From MPC107684
P/2015 M2 (PANSTARRS),e,3.9685,86.5788,226.0742,7.247871,0.0505113,0.17906939,147.2475,09/05.0/2023,2000,g  8.5,4.0
# From MPC 99819
P/2015 P4 (PANSTARRS),e,8.7186,104.6421,280.7369,6.046585,0.0662886,0.58579110,184.2736,09/05.0/2023,2000,g 14.0,4.0
# From MPEC 2022-K19
P/2015 PD229 (Cameron-ISON),e,2.0236,342.6782,352.7454,7.197247,0.0510451,0.32692851,150.1209,09/05.0/2023,2000,g 11.5,2.0
# From MPC 96867
P/2015 Q2 (Pimentel),e,146.5587,228.5583,244.6761,7.353129,0.0494306,0.75095988,144.2360,09/05.0/2023,2000,g 15.5,4.0
# From MPC 98562
P/2015 R1 (PANSTARRS),e,22.7029,48.3097,300.6145,5.881265,0.0691032,0.63399427,206.4393,09/05.0/2023,2000,g 14.0,4.0
# From MPC 95734
P/2015 R2 (PANSTARRS),e,15.4831,168.5916,149.8772,4.484182,0.1037957,0.45256752,311.4620,09/05.0/2023,2000,g 14.5,4.0
# From MPC102953
P/2015 TO19 (Lemmon-PANSTARRS),e,6.5024,321.6148,89.2525,4.550314,0.1015411,0.35961805,277.7432,09/05.0/2023,2000,g 14.0,4.0
# From MPC110080
P/2015 TP200 (LINEAR),e,8.7793,7.0049,82.4411,7.262816,0.0503555,0.53675430,125.9240,09/05.0/2023,2000,g 11.0,4.0
# From MPC101098
P/2015 W2 (Catalina),e,11.6132,294.0913,117.6281,7.290641,0.0500675,0.63555022,144.7440,09/05.0/2023,2000,g 13.0,4.0
# From MPEC 2022-OB6
C/2015 XY1 (Lemmon),e,148.8526,281.5474,196.1412,8766,0.0000012,0.99909544,0.0000,04/25.0711/2018,2000,g  5.5,4.0
# From MPEC 2023-J29
P/2015 X3 (PANSTARRS),e,24.4166,77.2578,306.8792,5.002274,0.0880953,0.44013441,259.2202,09/05.0/2023,2000,g 15.0,4.0
# From MPC115881
P/2015 X6 (PANSTARRS),e,4.5655,106.9303,329.8023,2.751701,0.2159247,0.17343415,227.2451,09/05.0/2023,2000,g 16.0,4.0
# From MPEC 2023-P35
P/2015 XG422 (PANSTARRS),e,20.1743,178.9633,43.5607,4.339166,0.1090422,0.30737964,269.9348,09/05.0/2023,2000,g 13.5,4.0
# From MPC100282
P/2016 A2 (Christensen),e,26.4043,291.6185,141.2882,4.753646,0.0950964,0.27114398,285.9255,09/05.0/2023,2000,g 11.5,4.0
# From MPEC 2022-OB6
P/2016 A3 (PANSTARRS),e,8.5125,187.2021,340.8592,7.875767,0.0445928,0.38612155,103.6245,09/05.0/2023,2000,g 10.0,4.0
# From MPC102098
P/2016 A7 (PANSTARRS),e,16.6072,221.4998,352.4718,5.035822,0.0872165,0.56495517,240.4992,09/05.0/2023,2000,g 16.0,4.0
# From MPEC 2021-P47
P/2016 G1 (PANSTARRS),e,10.9713,204.0158,111.1483,2.583365,0.2373698,0.21044815,213.0358,09/05.0/2023,2000,g 14.0,4.0
# From MPEC 2017-D91
P/2016 J1-A (PANSTARRS),e,14.3287,199.8077,47.3841,3.176592,0.1740852,0.22755242,97.5067,09/05.0/2023,2000,g 16.5,4.0
# From MPEC 2017-A77
P/2016 J1-B (PANSTARRS),e,14.3315,199.8125,47.2762,3.176232,0.1741149,0.22740050,97.6606,09/05.0/2023,2000,g 17.0,4.0
# From MPEC 2022-ED3
C/2016 M1 (PANSTARRS),e,90.8183,92.2770,209.9263,14914,0.0000005,0.99985155,0.0000,08/10.3007/2018,2000,g  5.0,4.0
# From MPEC 2021-P47
C/2016 N6 (PANSTARRS),e,105.8773,298.8680,162.5642,924.4068,0.0000351,0.99712251,0.0000,07/17.1979/2018,2000,g  7.0,4.0
# From MPC102099
P/2016 P1 (PANSTARRS),e,24.3628,319.3513,270.8026,3.202122,0.1720075,0.28894514,140.2617,09/05.0/2023,2000,g 15.0,4.0
# From MPEC 2023-QF0
C/2016 Q2 (PANSTARRS),h,05/12.4312/2021,109.3721,322.3215,84.5584,1.003274,7.081564,2000,6.0,4.0
